{"type": "FeatureCollection", "features": [ {"type": "Feature", "properties": {"norad_id": 30305, "name": "FENGYUN 1C DEB", "group": "fengyun-1c-debris", "lat": 77.64528162454917, "lon": -124.3453131650906, "alt_km": 879.3903970096471, "timestamp": "2025-12-04T05:42:43.648376+00:00", "meta": {"OBJECT_NAME": "FENGYUN 1C DEB", "OBJECT_ID": "1999-025ZS", "EPOCH": "2025-12-03T19:02:17.816064", "MEAN_MOTION": 13.60223517, "ECCENTRICITY": 0.02654908, "INCLINATION": 98.586, "RA_OF_ASC_NODE": 278.873, "ARG_OF_PERICENTER": 124.4463, "MEAN_ANOMALY": 302.013, "EPHEMERIS_TYPE": 0, "CLASSIFICATION_TYPE": "U", "NORAD_CAT_ID": 30305, "ELEMENT_SET_NO": 999, "REV_AT_EPOCH": 93652, "BSTAR": 0.00030366326, "MEAN_MOTION_DOT": 2.53e-06, "MEAN_MOTION_DDOT": 0}, "tle": {"line1": "1 30305U 99025ZS  25337.79326176  .00000253  00000+0  30366-3 0  9997", "line2": "2 30305  98.5860 278.8730 0265490 124.4463 302.0130 13.60223517936528"}}, "geometry": {"type": "Point", "coordinates": [-124.3453131650906, 77.64528162454917]}}, {"type": "Feature", "properties": {"norad_id": 30306, "name": "FENGYUN 1C DEB", "group": "fengyun-1c-debris", "lat": -80.23050873884249, "lon": 138.09429273557, "alt_km": 841.934458442217, "timestamp": "2025-12-04T05:42:43.648388+00:00", "meta": {"OBJECT_NAME": "FENGYUN 1C DEB", "OBJECT_ID": "1999-025ZT", "EPOCH": "2025-12-03T20:03:46.949184", "MEAN_MOTION": 14.28133457, "ECCENTRICITY": 0.01138307, "INCLINATION": 98.5878, "RA_OF_ASC_NODE": 19.0588, "ARG_OF_PERICENTER": 23.7299, "MEAN_ANOMALY": 336.9074, "EPHEMERIS_TYPE": 0, "CLASSIFICATION_TYPE": "U", "NORAD_CAT_ID": 30306, "ELEMENT_SET_NO": 999, "REV_AT_EPOCH": 97554, "BSTAR": 0.0018469323, "MEAN_MOTION_DOT": 4.883e-05, "MEAN_MOTION_DDOT": 0}, "tle": {"line1": "1 30306U 99025ZT  25337.83596006  .00004883  00000+0  18469-2 0  9996", "line2": "2 30306  98.5878  19.0588 0113830  23.7299 336.9074 14.28133457975548"}}, "geometry": {"type": "Point", "coordinates": [138.09429273557, -80.23050873884249]}}, {"type": "Feature", "properties": {"norad_id": 30309, "name": "FENGYUN 1C DEB", "group": "fengyun-1c-debris", "lat": 31.213741822701188, "lon": -138.92308752261826, "alt_km": 887.1270649327489, "timestamp": "2025-12-04T05:42:43.648399+00:00", "meta": {"OBJECT_NAME": "FENGYUN 1C DEB", "OBJECT_ID": "1999-025ZW", "EPOCH": "2025-12-03T15:12:35.136864", "MEAN_MOTION": 13.93507151, "ECCENTRICITY": 0.00930337, "INCLINATION": 99.2273, "RA_OF_ASC_NODE": 34.8214, "ARG_OF_PERICENTER": 216.5434, "MEAN_ANOMALY": 142.9355, "EPHEMERIS_TYPE": 0, "CLASSIFICATION_TYPE": "U", "NORAD_CAT_ID": 30309, "ELEMENT_SET_NO": 999, "REV_AT_EPOCH": 95906, "BSTAR": 0.00032817354, "MEAN_MOTION_DOT": 4.01e-06, "MEAN_MOTION_DDOT": 0}, "tle": {"line1": "1 30309U 99025ZW  25337.63374001  .00000401  00000+0  32817-3 0  9992", "line2": "2 30309  99.2273  34.8214 0093033 216.5434 142.9355 13.93507151959067"}}, "geometry": {"type": "Point", "coordinates": [-138.92308752261826, 31.213741822701188]}}, {"type": "Feature", "properties": {"norad_id": 30310, "name": "FENGYUN 1C DEB", "group": "fengyun-1c-debris", "lat": -26.30557717082914, "lon": 2.5255005773080987, "alt_km": 751.5753907874496, "timestamp": "2025-12-04T05:42:43.648409+00:00", "meta": {"OBJECT_NAME": "FENGYUN 1C DEB", "OBJECT_ID": "1999-025ZX", "EPOCH": "2025-12-03T21:18:29.546208", "MEAN_MOTION": 14.0834674, "ECCENTRICITY": 0.02414357, "INCLINATION": 98.6655, "RA_OF_ASC_NODE": 357.8652, "ARG_OF_PERICENTER": 22.5849, "MEAN_ANOMALY": 338.5735, "EPHEMERIS_TYPE": 0, "CLASSIFICATION_TYPE": "U", "NORAD_CAT_ID": 30310, "ELEMENT_SET_NO": 999, "REV_AT_EPOCH": 96607, "BSTAR": 0.0010563861, "MEAN_MOTION_DOT": 2.32e-05, "MEAN_MOTION_DDOT": 0}, "tle": {"line1": "1 30310U 99025ZX  25337.88784197  .00002320  00000+0  10564-2 0  9998", "line2": "2 30310  98.6655 357.8652 0241435  22.5849 338.5735 14.08346740966072"}}, "geometry": {"type": "Point", "coordinates": [2.5255005773080987, -26.30557717082914]}}, {"type": "Feature", "properties": {"norad_id": 30311, "name": "FENGYUN 1C DEB", "group": "fengyun-1c-debris", "lat": 26.669586956062822, "lon": 69.6022286085208, "alt_km": 1088.6529893848265, "timestamp": "2025-12-04T05:42:43.648419+00:00", "meta": {"OBJECT_NAME": "FENGYUN 1C DEB", "OBJECT_ID": "1999-025ZY", "EPOCH": "2025-12-03T05:10:43.207104", "MEAN_MOTION": 13.7787367, "ECCENTRICITY": 0.0164935, "INCLINATION": 99.1399, "RA_OF_ASC_NODE": 73.2561, "ARG_OF_PERICENTER": 222.2081, "MEAN_ANOMALY": 136.6276, "EPHEMERIS_TYPE": 0, "CLASSIFICATION_TYPE": "U", "NORAD_CAT_ID": 30311, "ELEMENT_SET_NO": 999, "REV_AT_EPOCH": 94829, "BSTAR": 0.00063409, "MEAN_MOTION_DOT": 6.59e-06, "MEAN_MOTION_DDOT": 0}, "tle": {"line1": "1 30311U 99025ZY  25337.21577786  .00000659  00000+0  63409-3 0  9990", "line2": "2 30311  99.1399  73.2561 0164935 222.2081 136.6276 13.77873670948291"}}, "geometry": {"type": "Point", "coordinates": [69.6022286085208, 26.669586956062822]}}, {"type": "Feature", "properties": {"norad_id": 30312, "name": "FENGYUN 1C DEB", "group": "fengyun-1c-debris", "lat": -28.4323271013707, "lon": -127.7169515887391, "alt_km": 738.2933012979602, "timestamp": "2025-12-04T05:42:43.648429+00:00", "meta": {"OBJECT_NAME": "FENGYUN 1C DEB", "OBJECT_ID": "1999-025ZZ", "EPOCH": "2025-12-03T19:20:36.873312", "MEAN_MOTION": 14.45563102, "ECCENTRICITY": 0.00116178, "INCLINATION": 98.8678, "RA_OF_ASC_NODE": 56.6808, "ARG_OF_PERICENTER": 232.3155, "MEAN_ANOMALY": 249.4575, "EPHEMERIS_TYPE": 0, "CLASSIFICATION_TYPE": "U", "NORAD_CAT_ID": 30312, "ELEMENT_SET_NO": 999, "REV_AT_EPOCH": 97791, "BSTAR": 0.0039385534, "MEAN_MOTION_DOT": 0.00013895, "MEAN_MOTION_DDOT": 0}, "tle": {"line1": "1 30312U 99025ZZ  25337.80598233  .00013895  00000+0  39386-2 0  9998", "line2": "2 30312  98.8678  56.6808 0011617 232.3155 249.4575 14.45563102977917"}}, "geometry": {"type": "Point", "coordinates": [-127.7169515887391, -28.4323271013707]}}, {"type": "Feature", "properties": {"norad_id": 30313, "name": "FENGYUN 1C DEB", "group": "fengyun-1c-debris", "lat": -13.905990411194333, "lon": -117.91029159916386, "alt_km": 851.371078338504, "timestamp": "2025-12-04T05:42:43.648439+00:00", "meta": {"OBJECT_NAME": "FENGYUN 1C DEB", "OBJECT_ID": "1999-025AAA", "EPOCH": "2025-12-03T19:16:26.493888", "MEAN_MOTION": 14.25338198, "ECCENTRICITY": 0.00563127, "INCLINATION": 98.8767, "RA_OF_ASC_NODE": 63.8672, "ARG_OF_PERICENTER": 2.6792, "MEAN_ANOMALY": 121.0036, "EPHEMERIS_TYPE": 0, "CLASSIFICATION_TYPE": "U", "NORAD_CAT_ID": 30313, "ELEMENT_SET_NO": 999, "REV_AT_EPOCH": 96962, "BSTAR": 0.0023476194, "MEAN_MOTION_DOT": 5.581e-05, "MEAN_MOTION_DDOT": 0}, "tle": {"line1": "1 30313U 99025AAA 25337.80308442  .00005581  00000+0  23476-2 0  9996", "line2": "2 30313  98.8767  63.8672 0056312   2.6792 121.0036 14.25338198969621"}}, "geometry": {"type": "Point", "coordinates": [-117.91029159916386, -13.905990411194333]}}, {"type": "Feature", "properties": {"norad_id": 30314, "name": "FENGYUN 1C DEB", "group": "fengyun-1c-debris", "lat": -56.30662170070431, "lon": -22.98025621461965, "alt_km": 981.024968699463, "timestamp": "2025-12-04T05:42:43.648449+00:00", "meta": {"OBJECT_NAME": "FENGYUN 1C DEB", "OBJECT_ID": "1999-025AAB", "EPOCH": "2025-12-03T11:26:37.365504", "MEAN_MOTION": 14.01143232, "ECCENTRICITY": 0.01426909, "INCLINATION": 98.3813, "RA_OF_ASC_NODE": 169.0949, "ARG_OF_PERICENTER": 24.0355, "MEAN_ANOMALY": 336.7387, "EPHEMERIS_TYPE": 0, "CLASSIFICATION_TYPE": "U", "NORAD_CAT_ID": 30314, "ELEMENT_SET_NO": 999, "REV_AT_EPOCH": 95979, "BSTAR": 0.001378203, "MEAN_MOTION_DOT": 2.223e-05, "MEAN_MOTION_DDOT": 0}, "tle": {"line1": "1 30314U 99025AAB 25337.47682136  .00002223  00000+0  13782-2 0  9994", "line2": "2 30314  98.3813 169.0949 0142690  24.0355 336.7387 14.01143232959791"}}, "geometry": {"type": "Point", "coordinates": [-22.98025621461965, -56.30662170070431]}}, {"type": "Feature", "properties": {"norad_id": 30315, "name": "FENGYUN 1C DEB", "group": "fengyun-1c-debris", "lat": -35.714535539255344, "lon": 161.75109421509856, "alt_km": 860.0887880649852, "timestamp": "2025-12-04T05:42:43.648459+00:00", "meta": {"OBJECT_NAME": "FENGYUN 1C DEB", "OBJECT_ID": "1999-025AAC", "EPOCH": "2025-12-03T12:29:05.554752", "MEAN_MOTION": 14.19043316, "ECCENTRICITY": 0.00357488, "INCLINATION": 98.6023, "RA_OF_ASC_NODE": 347.3024, "ARG_OF_PERICENTER": 26.7755, "MEAN_ANOMALY": 124.5278, "EPHEMERIS_TYPE": 0, "CLASSIFICATION_TYPE": "U", "NORAD_CAT_ID": 30315, "ELEMENT_SET_NO": 999, "REV_AT_EPOCH": 97576, "BSTAR": 0.00042200762, "MEAN_MOTION_DOT": 8.44e-06, "MEAN_MOTION_DDOT": 0}, "tle": {"line1": "1 30315U 99025AAC 25337.52020318  .00000844  00000+0  42201-3 0  9995", "line2": "2 30315  98.6023 347.3024 0035748  26.7755 124.5278 14.19043316975769"}}, "geometry": {"type": "Point", "coordinates": [161.75109421509856, -35.714535539255344]}}, {"type": "Feature", "properties": {"norad_id": 30316, "name": "FENGYUN 1C DEB", "group": "fengyun-1c-debris", "lat": -41.34114355042908, "lon": -107.3505532323169, "alt_km": 736.680069503811, "timestamp": "2025-12-04T05:42:43.648469+00:00", "meta": {"OBJECT_NAME": "FENGYUN 1C DEB", "OBJECT_ID": "1999-025AAD", "EPOCH": "2025-12-03T05:36:17.644320", "MEAN_MOTION": 14.55765488, "ECCENTRICITY": 0.0036332, "INCLINATION": 98.6492, "RA_OF_ASC_NODE": 79.3052, "ARG_OF_PERICENTER": 69.8209, "MEAN_ANOMALY": 290.6889, "EPHEMERIS_TYPE": 0, "CLASSIFICATION_TYPE": "U", "NORAD_CAT_ID": 30316, "ELEMENT_SET_NO": 999, "REV_AT_EPOCH": 98198, "BSTAR": 0.0028629, "MEAN_MOTION_DOT": 0.00012616, "MEAN_MOTION_DDOT": 0}, "tle": {"line1": "1 30316U 99025AAD 25337.23353755  .00012616  00000+0  28629-2 0  9995", "line2": "2 30316  98.6492  79.3052 0036332  69.8209 290.6889 14.55765488981980"}}, "geometry": {"type": "Point", "coordinates": [-107.3505532323169, -41.34114355042908]}}]}